UNKNOWN                 
1 81311U          26089.96341300  .00001005  00000+0  21133-3 0  9993
2 81311  98.7122 157.2576 0131591 153.4071  19.5197 14.56720039655341
UNKNOWN                 
1 81317U          26086.89985143  .00000075  00000+0  23068-3 0  9992
2 81317  67.1376 305.0674 0216764 321.0643  51.7514 13.38058486602706
UNKNOWN                 
1 81323U          26090.69102665  .00016652  00000+0  20354-2 0  9994
2 81323  65.7488  82.9499 0333399 256.5874  99.7869 14.51029105128844
UNKNOWN                 
1 81329U          26085.44629429  .00000769  00000+0  29440-3 0  9997
2 81329  65.8185 252.8345 0836355 343.0357  14.4185 13.22777555591790
UNKNOWN                 
1 81343U          26091.16889430  .00004822  00000+0  33280-3 0  9990
2 81343  85.8742 140.8231 0008236 207.0055 153.0752 15.05530775470778
UNKNOWN                 
1 81359U          26090.90973944  .00000676  00000+0  69533-3 0  9995
2 81359  66.7969 150.6561 0120626 253.1138 105.6680 13.79018790620532
UNKNOWN                 
1 81366U          26086.53428863  .00000530  00000+0  21477-3 0  9996
2 81366  65.8825 183.9701 0713881  30.5600 333.5089 13.45413471 80058
UNKNOWN                 
1 81371U          26090.75800180  .00004216  00000+0  66646-3 0  9999
2 81371  98.8116 201.0034 0068887  25.7041 334.7561 14.71337529657864
UNKNOWN                 
1 81386U          26086.40325342  .00003923  00000+0  12632-2 0  9993
2 81386  71.0460 129.2323 0091473 278.6144  80.4635 14.37509397639275
UNKNOWN                 
1 81390U          26091.44098504 -.00000395  00000+0 -25854-2 0  9997
2 81390 103.1051 352.4570 0175687 314.0589  44.6114 12.35608531513647
UNKNOWN                 
1 81392U          26089.80158224  .00003487  00000+0  32469-2 0  9995
2 81392 100.4064  94.0474 0042137 116.4095  60.6828 13.82434088617107
UNKNOWN                 
1 81405U          26073.89719008  .00001447  00000+0  11126-2 0  9996
2 81405  99.4590 128.5260 0157520 337.4444  21.9841 13.89179281574593
